1 26871U 01031A   12050.19217006 -.00000308  00000-0  10000-3 0  4635
2 26871 001.9914 074.2951 0002559 312.0625 131.6039 01.00277982 38806